{
    "links": {
        "self": "http://www.neowsapp.com/rest/v1/neo/3412895?api_key=iIulBulltgU6a56xZRHN4H3l9WmuAYTsLGpBGhQ2"
    },
    "id": "3412895",
    "neo_reference_id": "3412895",
    "name": "(2008 KF6)",
    "designation": "2008 KF6",
    "nasa_jpl_url": "http://ssd.jpl.nasa.gov/sbdb.cgi?sstr=3412895",
    "absolute_magnitude_h": 23.5,
    "estimated_diameter": {
        "kilometers": {
            "estimated_diameter_min": 0.0530340723,
            "estimated_diameter_max": 0.1185877909
        },
        "meters": {
            "estimated_diameter_min": 53.0340723319,
            "estimated_diameter_max": 118.5877908577
        },
        "miles": {
            "estimated_diameter_min": 0.0329538346,
            "estimated_diameter_max": 0.0736870142
        },
        "feet": {
            "estimated_diameter_min": 173.9963058693,
            "estimated_diameter_max": 389.0675677576
        }
    },
    "is_potentially_hazardous_asteroid": false,
    "close_approach_data": [
        {
            "close_approach_date": "2008-05-24",
            "close_approach_date_full": "2008-May-24 12:16",
            "epoch_date_close_approach": 1211631360000,
            "relative_velocity": {
                "kilometers_per_second": "8.5213750414",
                "kilometers_per_hour": "30676.9501488639",
                "miles_per_hour": "19061.4638299983"
            },
            "miss_distance": {
                "astronomical": "0.0555384154",
                "lunar": "21.6044435906",
                "kilometers": "8308428.647015198",
                "miles": "5162618.1674698124"
            },
            "orbiting_body": "Earth"
        }
    ],
    "orbital_data": {
        "orbit_id": "8",
        "orbit_determination_date": "2017-04-06 09:03:21",
        "first_observation_date": "2008-05-30",
        "last_observation_date": "2008-06-02",
        "data_arc_in_days": 3,
        "observations_used": 27,
        "orbit_uncertainty": "9",
        "minimum_orbit_intersection": ".0390534",
        "jupiter_tisserand_invariant": "3.342",
        "epoch_osculation": "2454617.5",
        "eccentricity": ".5538743810025037",
        "semi_major_axis": "2.330127877294312",
        "inclination": "5.775177209619619",
        "ascending_node_longitude": "64.0987621845771",
        "orbital_period": "1299.176213397515",
        "perihelion_distance": "1.039529741601247",
        "perihelion_argument": "159.7175248975734",
        "aphelion_distance": "3.620726012987378",
        "perihelion_time": "2454595.322148879058",
        "mean_anomaly": "6.145453034935002",
        "mean_motion": ".2770986693626057",
        "equinox": "J2000",
        "orbit_class": {
            "orbit_class_type": "AMO",
            "orbit_class_description": "Near-Earth asteroid orbits similar to that of 1221 Amor",
            "orbit_class_range": "1.017 AU < q (perihelion) < 1.3 AU"
        }
    },
    "is_sentry_object": false
}